{
  "norad_id": 57890,
  "name": "YAOGAN-39 02C",
  "history": [
    {
      "epoch": "2026-03-28T22:54:31.857696Z",
      "apogee_km": 518.5507059606243,
      "perigee_km": 511.22231908305093,
      "latitude_deg": -3.112696036465149e-05,
      "longitude_deg": -165.350353576485,
      "height_km": 511.3789349569592,
      "semi_major_axis_km": 6893.023512521837,
      "eccentricity": 0.00053158,
      "inclination_deg": 34.9953,
      "raan_deg": 4.65,
      "arg_perigee_deg": 48.8104,
      "mean_anomaly_deg": 311.3066,
      "mean_motion_rev_day": 15.17008877
    },
    {
      "epoch": "2026-03-29T03:38:50.132832Z",
      "apogee_km": 518.5222214653486,
      "perigee_km": 511.2280360307068,
      "latitude_deg": 2.8524589277900568e-05,
      "longitude_deg": 122.1486852457583,
      "height_km": 511.4790062908441,
      "semi_major_axis_km": 6893.012128748027,
      "eccentricity": 0.0005291,
      "inclination_deg": 34.9954,
      "raan_deg": 3.4197,
      "arg_perigee_deg": 50.8737,
      "mean_anomaly_deg": 309.2446,
      "mean_motion_rev_day": 15.17012635
    },
    {
      "epoch": "2026-03-30T04:55:06.789216Z",
      "apogee_km": 518.3574669155287,
      "perigee_km": 511.25897406856166,
      "latitude_deg": -1.747407251781331e-05,
      "longitude_deg": 95.47956382824584,
      "height_km": 512.0243392468859,
      "semi_major_axis_km": 6892.945220492045,
      "eccentricity": 0.00051491,
      "inclination_deg": 34.9955,
      "raan_deg": 356.8579,
      "arg_perigee_deg": 61.5939,
      "mean_anomaly_deg": 298.5292,
      "mean_motion_rev_day": 15.17034723
    },
    {
      "epoch": "2026-03-30T23:52:18.438240Z",
      "apogee_km": 518.2423971780308,
      "perigee_km": 511.27877846096,
      "latitude_deg": 7.81973942258158e-06,
      "longitude_deg": 165.4813813340494,
      "height_km": 512.482380723321,
      "semi_major_axis_km": 6892.897587819495,
      "eccentricity": 0.00050513,
      "inclination_deg": 34.9954,
      "raan_deg": 351.9366,
      "arg_perigee_deg": 70.1498,
      "mean_anomaly_deg": 289.9759,
      "mean_motion_rev_day": 15.17050448
    },
    {
      "epoch": "2026-03-31T20:24:15.329952Z",
      "apogee_km": 518.1396267102737,
      "perigee_km": 511.28813293572966,
      "latitude_deg": 7.045373035783798e-06,
      "longitude_deg": -148.6804059426601,
      "height_km": 512.9723698006243,
      "semi_major_axis_km": 6892.850879823001,
      "eccentricity": 0.000497,
      "inclination_deg": 34.9954,
      "raan_deg": 346.6051,
      "arg_perigee_deg": 79.1431,
      "mean_anomaly_deg": 280.9841,
      "mean_motion_rev_day": 15.17065868
    },
    {
      "epoch": "2026-04-01T20:05:43.177056Z",
      "apogee_km": 518.0800389265823,
      "perigee_km": 511.2644291559627,
      "latitude_deg": -1.3425966087246716e-05,
      "longitude_deg": -151.17052099691531,
      "height_km": 513.560211868324,
      "semi_major_axis_km": 6892.809234041272,
      "eccentricity": 0.0004944,
      "inclination_deg": 34.9949,
      "raan_deg": 340.454,
      "arg_perigee_deg": 89.7398,
      "mean_anomaly_deg": 270.3881,
      "mean_motion_rev_day": 15.17079617
    },
    {
      "epoch": "2026-04-02T19:47:09.953664Z",
      "apogee_km": 518.0102691448074,
      "perigee_km": 511.20988487862724,
      "latitude_deg": -2.8037414040741894e-05,
      "longitude_deg": -153.6569555819147,
      "height_km": 514.1389463911202,
      "semi_major_axis_km": 6892.747077011717,
      "eccentricity": 0.0004933,
      "inclination_deg": 34.9946,
      "raan_deg": 334.3021,
      "arg_perigee_deg": 100.5998,
      "mean_anomaly_deg": 259.527,
      "mean_motion_rev_day": 15.17100138
    },
    {
      "epoch": "2026-04-02T22:56:41.388576Z",
      "apogee_km": 517.9945719861307,
      "perigee_km": 511.1823535567655,
      "latitude_deg": 1.6813020614742532e-06,
      "longitude_deg": 158.01238341720006,
      "height_km": 514.1941559732097,
      "semi_major_axis_km": 6892.725462771448,
      "eccentricity": 0.00049416,
      "inclination_deg": 34.9946,
      "raan_deg": 333.4821,
      "arg_perigee_deg": 101.8989,
      "mean_anomaly_deg": 258.2278,
      "mean_motion_rev_day": 15.17107274
    },
    {
      "epoch": "2026-04-03T21:03:21.027744Z",
      "apogee_km": 517.9295245976991,
      "perigee_km": 511.1237085426965,
      "latitude_deg": -6.292717461595838e-06,
      "longitude_deg": 179.69694190411468,
      "height_km": 514.6814606794856,
      "semi_major_axis_km": 6892.6636165701975,
      "eccentricity": 0.0004937,
      "inclination_deg": 34.9944,
      "raan_deg": 327.7399,
      "arg_perigee_deg": 111.5735,
      "mean_anomaly_deg": 248.5504,
      "mean_motion_rev_day": 15.17127693
    },
    {
      "epoch": "2026-04-04T20:44:45.174336Z",
      "apogee_km": 517.9222990436829,
      "perigee_km": 511.0214190540037,
      "latitude_deg": -5.004259439343544e-06,
      "longitude_deg": 177.2207167023665,
      "height_km": 515.1900043695857,
      "semi_major_axis_km": 6892.6088590488425,
      "eccentricity": 0.0005006,
      "inclination_deg": 34.9944,
      "raan_deg": 321.5872,
      "arg_perigee_deg": 121.721,
      "mean_anomaly_deg": 238.3991,
      "mean_motion_rev_day": 15.17145772
    },
    {
      "epoch": "2026-04-05T14:07:06.206592Z",
      "apogee_km": 517.9219418512221,
      "perigee_km": 510.9425262448249,
      "latitude_deg": -4.290612199834098e-05,
      "longitude_deg": -88.59223631434782,
      "height_km": 515.5427445221912,
      "semi_major_axis_km": 6892.569234048023,
      "eccentricity": 0.0005063,
      "inclination_deg": 34.9943,
      "raan_deg": 317.0754,
      "arg_perigee_deg": 129.2122,
      "mean_anomaly_deg": 230.904,
      "mean_motion_rev_day": 15.17158855
    },
    {
      "epoch": "2026-04-05T20:26:08.291904Z",
      "apogee_km": 517.9409371248703,
      "perigee_km": 510.89674505527637,
      "latitude_deg": 5.15191336100624e-05,
      "longitude_deg": 174.74926848295672,
      "height_km": 515.6753242466734,
      "semi_major_axis_km": 6892.555841090073,
      "eccentricity": 0.000511,
      "inclination_deg": 34.9942,
      "raan_deg": 315.4349,
      "arg_perigee_deg": 131.8973,
      "mean_anomaly_deg": 228.2177,
      "mean_motion_rev_day": 15.17163277
    },
    {
      "epoch": "2026-04-06T01:10:24.805344Z",
      "apogee_km": 517.9416047894892,
      "perigee_km": 510.87536715726947,
      "latitude_deg": -1.0556269884621845e-05,
      "longitude_deg": 102.25529443481935,
      "height_km": 515.7587415842652,
      "semi_major_axis_km": 6892.545485973379,
      "eccentricity": 0.0005126,
      "inclination_deg": 34.9942,
      "raan_deg": 314.2044,
      "arg_perigee_deg": 133.8059,
      "mean_anomaly_deg": 226.3078,
      "mean_motion_rev_day": 15.17166696
    },
    {
      "epoch": "2026-04-07T15:04:35.731776Z",
      "apogee_km": 517.9849622550119,
      "perigee_km": 510.7058116061744,
      "latitude_deg": 4.980255006462993e-05,
      "longitude_deg": -117.69137316176034,
      "height_km": 516.4093645243773,
      "semi_major_axis_km": 6892.482386930593,
      "eccentricity": 0.00052805,
      "inclination_deg": 34.9942,
      "raan_deg": 304.3598,
      "arg_perigee_deg": 150.1971,
      "mean_anomaly_deg": 209.9044,
      "mean_motion_rev_day": 15.1718753
    },
    {
      "epoch": "2026-04-07T21:23:37.353984Z",
      "apogee_km": 518.022534929265,
      "perigee_km": 510.6475898225235,
      "latitude_deg": -4.2200141094846794e-05,
      "longitude_deg": 145.65150137988383,
      "height_km": 516.5297114662977,
      "semi_major_axis_km": 6892.472062375894,
      "eccentricity": 0.000535,
      "inclination_deg": 34.9943,
      "raan_deg": 302.719,
      "arg_perigee_deg": 153.1054,
      "mean_anomaly_deg": 206.9936,
      "mean_motion_rev_day": 15.17190939
    },
    {
      "epoch": "2026-04-08T14:45:56.565792Z",
      "apogee_km": 518.0498896284935,
      "perigee_km": 510.5721349310106,
      "latitude_deg": 1.6283095248747874e-05,
      "longitude_deg": -120.15390978109778,
      "height_km": 516.7338902901357,
      "semi_major_axis_km": 6892.448012279752,
      "eccentricity": 0.00054246,
      "inclination_deg": 34.9942,
      "raan_deg": 298.207,
      "arg_perigee_deg": 160.1296,
      "mean_anomaly_deg": 199.9629,
      "mean_motion_rev_day": 15.1719888
    },
    {
      "epoch": "2026-04-09T20:46:18.043104Z",
      "apogee_km": 518.1028990048899,
      "perigee_km": 510.4233867656867,
      "latitude_deg": -2.5811540924890435e-05,
      "longitude_deg": 140.7311366813673,
      "height_km": 516.9763815757009,
      "semi_major_axis_km": 6892.400142885288,
      "eccentricity": 0.0005571,
      "inclination_deg": 34.9942,
      "raan_deg": 290.4139,
      "arg_perigee_deg": 172.3483,
      "mean_anomaly_deg": 187.7315,
      "mean_motion_rev_day": 15.17214686
    },
    {
      "epoch": "2026-04-10T04:40:04.543392Z",
      "apogee_km": 518.1408393695365,
      "perigee_km": 510.35878326861257,
      "latitude_deg": 2.160170466691425e-06,
      "longitude_deg": 19.911436894982145,
      "height_km": 517.0358684555919,
      "semi_major_axis_km": 6892.386811319074,
      "eccentricity": 0.00056454,
      "inclination_deg": 34.9938,
      "raan_deg": 288.3622,
      "arg_perigee_deg": 175.3431,
      "mean_anomaly_deg": 184.7335,
      "mean_motion_rev_day": 15.17219088
    },
    {
      "epoch": "2026-04-11T20:08:56.247360Z",
      "apogee_km": 518.2107019824571,
      "perigee_km": 510.1976661218787,
      "latitude_deg": 8.914879094243011e-06,
      "longitude_deg": 135.82078182155524,
      "height_km": 517.0558189456306,
      "semi_major_axis_km": 6892.341184052168,
      "eccentricity": 0.0005813,
      "inclination_deg": 34.9937,
      "raan_deg": 278.1084,
      "arg_perigee_deg": 190.2504,
      "mean_anomaly_deg": 169.8091,
      "mean_motion_rev_day": 15.17234154
    }
  ]
}